{"type": "FeatureCollection", "features": [{"type": "Feature", "properties": {"norad_id": 50032, "name": "COSMOS 1408 DEB", "group": "cosmos-1408-debris", "lat": 31.727715682083687, "lon": 56.987839815539864, "alt_km": 437.09737261860664, "timestamp": "2025-12-18T17:50:15.227539+00:00", "meta": {"OBJECT_NAME": "COSMOS 1408 DEB", "OBJECT_ID": "1982-092RU", "EPOCH": "2025-12-18T05:16:11.049312", "MEAN_MOTION": 15.45749079, "ECCENTRICITY": 0.00157679, "INCLINATION": 82.5642, "RA_OF_ASC_NODE": 52.8928, "ARG_OF_PERICENTER": 187.9166, "MEAN_ANOMALY": 172.1837, "EPHEMERIS_TYPE": 0, "CLASSIFICATION_TYPE": "U", "NORAD_CAT_ID": 50032, "ELEMENT_SET_NO": 999, "REV_AT_EPOCH": 22688, "BSTAR": 9.5278906e-05, "MEAN_MOTION_DOT": 4.669e-05, "MEAN_MOTION_DDOT": 0}, "tle": {"line1": "1 50032U 82092RU  25352.21957233  .00004669  00000+0  95279-4 0  9990", "line2": "2 50032  82.5642  52.8928 0015767 187.9166 172.1837 15.45749079226883"}}, "geometry": {"type": "Point", "coordinates": [56.987839815539864, 31.727715682083687]}}, {"type": "Feature", "properties": {"norad_id": 50058, "name": "COSMOS 1408 DEB", "group": "cosmos-1408-debris", "lat": -81.3557104439698, "lon": 4.475856227578364, "alt_km": 392.66187151065424, "timestamp": "2025-12-18T17:50:15.227559+00:00", "meta": {"OBJECT_NAME": "COSMOS 1408 DEB", "OBJECT_ID": "1982-092SW", "EPOCH": "2025-12-18T05:55:20.502048", "MEAN_MOTION": 15.64432229, "ECCENTRICITY": 0.00161978, "INCLINATION": 82.6132, "RA_OF_ASC_NODE": 63.5774, "ARG_OF_PERICENTER": 80.2091, "MEAN_ANOMALY": 280.0997, "EPHEMERIS_TYPE": 0, "CLASSIFICATION_TYPE": "U", "NORAD_CAT_ID": 50058, "ELEMENT_SET_NO": 999, "REV_AT_EPOCH": 22890, "BSTAR": 0.0003034941, "MEAN_MOTION_DOT": 0.00029381, "MEAN_MOTION_DDOT": 0}, "tle": {"line1": "1 50058U 82092SW  25352.24676507  .00029381  00000+0  30349-3 0  9997", "line2": "2 50058  82.6132  63.5774 0016197  80.2091 280.0997 15.64432229228902"}}, "geometry": {"type": "Point", "coordinates": [4.475856227578364, -81.3557104439698]}}, {"type": "Feature", "properties": {"norad_id": 50404, "name": "COSMOS 1408 DEB", "group": "cosmos-1408-debris", "lat": 24.332199596630502, "lon": -147.56498863427836, "alt_km": 625.9623506135895, "timestamp": "2025-12-18T17:50:15.227572+00:00", "meta": {"OBJECT_NAME": "COSMOS 1408 DEB", "OBJECT_ID": "1982-092ADS", "EPOCH": "2025-12-18T01:52:12.715680", "MEAN_MOTION": 15.14600967, "ECCENTRICITY": 0.01699192, "INCLINATION": 82.2038, "RA_OF_ASC_NODE": 209.565, "ARG_OF_PERICENTER": 180.6283, "MEAN_ANOMALY": 179.4765, "EPHEMERIS_TYPE": 0, "CLASSIFICATION_TYPE": "U", "NORAD_CAT_ID": 50404, "ELEMENT_SET_NO": 999, "REV_AT_EPOCH": 21274, "BSTAR": 0.0025124658, "MEAN_MOTION_DOT": 0.00067287, "MEAN_MOTION_DDOT": 0}, "tle": {"line1": "1 50404U 82092ADS 25352.07792495  .00067287  00000+0  25125-2 0  9990", "line2": "2 50404  82.2038 209.5650 0169919 180.6283 179.4765 15.14600967212742"}}, "geometry": {"type": "Point", "coordinates": [-147.56498863427836, 24.332199596630502]}}, {"type": "Feature", "properties": {"norad_id": 50621, "name": "COSMOS 1408 DEB", "group": "cosmos-1408-debris", "lat": 49.579139158388976, "lon": -120.88357560465715, "alt_km": 372.3296731075625, "timestamp": "2025-12-18T17:50:15.227583+00:00", "meta": {"OBJECT_NAME": "COSMOS 1408 DEB", "OBJECT_ID": "1982-092ALR", "EPOCH": "2025-12-18T06:29:08.544192", "MEAN_MOTION": 15.56945936, "ECCENTRICITY": 0.00290388, "INCLINATION": 82.5704, "RA_OF_ASC_NODE": 68.4226, "ARG_OF_PERICENTER": 132.3132, "MEAN_ANOMALY": 228.0591, "EPHEMERIS_TYPE": 0, "CLASSIFICATION_TYPE": "U", "NORAD_CAT_ID": 50621, "ELEMENT_SET_NO": 999, "REV_AT_EPOCH": 22336, "BSTAR": 0.00033132969, "MEAN_MOTION_DOT": 0.00024399, "MEAN_MOTION_DDOT": 0}, "tle": {"line1": "1 50621U 82092ALR 25352.27023778  .00024399  00000+0  33133-3 0  9990", "line2": "2 50621  82.5704  68.4226 0029038 132.3132 228.0591 15.56945936223363"}}, "geometry": {"type": "Point", "coordinates": [-120.88357560465715, 49.579139158388976]}}]}